$$SOE
2460154.500000000, A.D. 2023-Jul-29 00:00:00.0000, -5.329022103207960E+08, -2.416081518303701E+08, 4.518296918018764E+07,
2460161.500000000, A.D. 2023-Aug-05 00:00:00.0000, -5.289981673033792E+08, -2.494057026055241E+08, 4.518245394143620E+07,
2460168.500000000, A.D. 2023-Aug-12 00:00:00.0000, -5.249669540783180E+08, -2.571432837041135E+08, 4.517107288344282E+07,
2460175.500000000, A.D. 2023-Aug-19 00:00:00.0000, -5.208093603447806E+08, -2.648189471119298E+08, 4.514881320309719E+07,
2460182.500000000, A.D. 2023-Aug-26 00:00:00.0000, -5.165262011019153E+08, -2.724307508811120E+08, 4.511566403972861E+07,
2460189.500000000, A.D. 2023-Sep-02 00:00:00.0000, -5.121183167861646E+08, -2.799767593039889E+08, 4.507161649115554E+07,
2460196.500000000, A.D. 2023-Sep-09 00:00:00.0000, -5.075865733989351E+08, -2.874550432057945E+08, 4.501666361887920E+07,
2460203.500000000, A.D. 2023-Sep-16 00:00:00.0000, -5.029318624560258E+08, -2.948636804144597E+08, 4.495080042228684E+07,
2460210.500000000, A.D. 2023-Sep-23 00:00:00.0000, -4.981551003422004E+08, -3.022007561208463E+08, 4.487402376717132E+07,
2460217.500000000, A.D. 2023-Sep-30 00:00:00.0000, -4.932572274101055E+08, -3.094643619387886E+08, 4.478633239709412E+07,
2460224.500000000, A.D. 2023-Oct-07 00:00:00.0000, -4.882392091767403E+08, -3.166525942080148E+08, 4.468772719918860E+07,
2460231.500000000, A.D. 2023-Oct-14 00:00:00.0000, -4.831020385774863E+08, -3.237635548538063E+08, 4.457821135841165E+07,
2460238.500000000, A.D. 2023-Oct-21 00:00:00.0000, -4.778467360495338E+08, -3.307953532011833E+08, 4.445779023535484E+07,
2460245.500000000, A.D. 2023-Oct-28 00:00:00.0000, -4.724743488690287E+08, -3.377461064833529E+08, 4.432647128323662E+07,
2460252.500000000, A.D. 2023-Nov-04 00:00:00.0000, -4.669859509913766E+08, -3.446139398146970E+08, 4.418426405597667E+07,
2460259.500000000, A.D. 2023-Nov-11 00:00:00.0000, -4.613826432166031E+08, -3.513969862284774E+08, 4.403118024223888E+07,
2460266.500000000, A.D. 2023-Nov-18 00:00:00.0000, -4.556655534600396E+08, -3.580933868440822E+08, 4.386723370028581E+07,
2460273.500000000, A.D. 2023-Nov-25 00:00:00.0000, -4.498358370554650E+08, -3.647012911417153E+08, 4.369244048905031E+07,
2460280.500000000, A.D. 2023-Dec-02 00:00:00.0000, -4.438946770624810E+08, -3.712188573560787E+08, 4.350681889212859E+07,
2460287.500000000, A.D. 2023-Dec-09 00:00:00.0000, -4.378432845001903E+08, -3.776442530482557E+08, 4.331038942287278E+07,
2460294.500000000, A.D. 2023-Dec-16 00:00:00.0000, -4.316828982194973E+08, -3.839756558435224E+08, 4.310317478529021E+07,
2460301.500000000, A.D. 2023-Dec-23 00:00:00.0000, -4.254147840654171E+08, -3.902112536478696E+08, 4.288519981493464E+07,
2460308.500000000, A.D. 2023-Dec-30 00:00:00.0000, -4.190402346692709E+08, -3.963492432940793E+08, 4.265649160833235E+07,
2460315.500000000, A.D. 2024-Jan-06 00:00:00.0000, -4.125605716427605E+08, -4.023878299783509E+08, 4.241707981036925E+07,
2460322.500000000, A.D. 2024-Jan-13 00:00:00.0000, -4.059771470012260E+08, -4.083252292950510E+08, 4.216699662076339E+07,
2460329.500000000, A.D. 2024-Jan-20 00:00:00.0000, -3.992913425928711E+08, -4.141596687851505E+08, 4.190627665930501E+07,
2460336.500000000, A.D. 2024-Jan-27 00:00:00.0000, -3.925045695623682E+08, -4.198893883455327E+08, 4.163495692897853E+07,
2460343.500000000, A.D. 2024-Feb-03 00:00:00.0000, -3.856182682761915E+08, -4.255126404471819E+08, 4.135307683836481E+07,
2460350.500000000, A.D. 2024-Feb-10 00:00:00.0000, -3.786339084310790E+08, -4.310276904533409E+08, 4.106067823372358E+07,
2460357.500000000, A.D. 2024-Feb-17 00:00:00.0000, -3.715529892059570E+08, -4.364328170303298E+08, 4.075780542841096E+07,
2460364.500000000, A.D. 2024-Feb-24 00:00:00.0000, -3.643770394209431E+08, -4.417263126372162E+08, 4.044450522740333E+07,
2460371.500000000, A.D. 2024-Mar-02 00:00:00.0000, -3.571076176740764E+08, -4.469064841278013E+08, 4.012082694154163E+07,
2460378.500000000, A.D. 2024-Mar-09 00:00:00.0000, -3.497463123171620E+08, -4.519716535284473E+08, 3.978682237362821E+07,
2460385.500000000, A.D. 2024-Mar-16 00:00:00.0000, -3.422947408755727E+08, -4.569201587948121E+08, 3.944254575625002E+07,
2460392.500000000, A.D. 2024-Mar-23 00:00:00.0000, -3.347545490154873E+08, -4.617503534384121E+08, 3.908805374143615E+07,
2460399.500000000, A.D. 2024-Mar-30 00:00:00.0000, -3.271274112991388E+08, -4.664606050495206E+08, 3.872340564544067E+07,
2460406.500000000, A.D. 2024-Apr-06 00:00:00.0000, -3.194150334712273E+08, -4.710492960841337E+08, 3.834866364985287E+07,
2460413.500000000, A.D. 2024-Apr-13 00:00:00.0000, -3.116191527250256E+08, -4.755148260792595E+08, 3.796389270167899E+07,
2460420.500000000, A.D. 2024-Apr-20 00:00:00.0000, -3.037415369002665E+08, -4.798556126201636E+08, 3.756916041853666E+07,
2460427.500000000, A.D. 2024-Apr-27 00:00:00.0000, -2.957839841294344E+08, -4.840700916206983E+08, 3.716453709223875E+07,
2460434.500000000, A.D. 2024-May-04 00:00:00.0000, -2.877483228438601E+08, -4.881567176197105E+08, 3.675009572519696E+07,
2460441.500000000, A.D. 2024-May-11 00:00:00.0000, -2.796364119004790E+08, -4.921139641950048E+08, 3.632591206945062E+07,
2460448.500000000, A.D. 2024-May-18 00:00:00.0000, -2.714501407464998E+08, -4.959403244730259E+08, 3.589206466261801E+07,
2460455.500000000, A.D. 2024-May-25 00:00:00.0000, -2.631914295965865E+08, -4.996343117411981E+08, 3.544863485804328E+07,
2460462.500000000, A.D. 2024-Jun-01 00:00:00.0000, -2.548622295620605E+08, -5.031944602201388E+08, 3.499570683913639E+07,
2460469.500000000, A.D. 2024-Jun-08 00:00:00.0000, -2.464645224850965E+08, -5.066193260184950E+08, 3.453336759365427E+07,
2460476.500000000, A.D. 2024-Jun-15 00:00:00.0000, -2.380003200777158E+08, -5.099074877251419E+08, 3.406170685606894E+07,
2460483.500000000, A.D. 2024-Jun-22 00:00:00.0000, -2.294716633700766E+08, -5.130575454633085E+08, 3.358081720649397E+07,
2460490.500000000, A.D. 2024-Jun-29 00:00:00.0000, -2.208806245886991E+08, -5.160681202270584E+08, 3.309079437213507E+07,
2460497.500000000, A.D. 2024-Jul-06 00:00:00.0000, -2.122293088186195E+08, -5.189378559714990E+08, 3.259173728686574E+07,
2460504.500000000, A.D. 2024-Jul-13 00:00:00.0000, -2.035198534997817E+08, -5.216654216333631E+08, 3.208374796113345E+07,
2460511.500000000, A.D. 2024-Jul-20 00:00:00.0000, -1.947544277431088E+08, -5.242495119335147E+08, 3.156693143833917E+07,
2460518.500000000, A.D. 2024-Jul-27 00:00:00.0000, -1.859352321217760E+08, -5.266888479205786E+08, 3.104139581942850E+07,
2460525.500000000, A.D. 2024-Aug-03 00:00:00.0000, -1.770644986640327E+08, -5.289821776302290E+08, 3.050725229986644E+07,
2460532.500000000, A.D. 2024-Aug-10 00:00:00.0000, -1.681444908809019E+08, -5.311282768641831E+08, 2.996461520318085E+07,
2460539.500000000, A.D. 2024-Aug-17 00:00:00.0000, -1.591775037804798E+08, -5.331259500668826E+08, 2.941360200822812E+07,
2460546.500000000, A.D. 2024-Aug-24 00:00:00.0000, -1.501658638401532E+08, -5.349740313219566E+08, 2.885433336552709E+07,
2460553.500000000, A.D. 2024-Aug-31 00:00:00.0000, -1.411119288204491E+08, -5.366713855298082E+08, 2.828693308676663E+07,
2460560.500000000, A.D. 2024-Sep-07 00:00:00.0000, -1.320180870545143E+08, -5.382169096397077E+08, 2.771152808403000E+07,
2460567.500000000, A.D. 2024-Sep-14 00:00:00.0000, -1.228867561276025E+08, -5.396095329399967E+08, 2.712824833204192E+07,
2460574.500000000, A.D. 2024-Sep-21 00:00:00.0000, -1.137203829749410E+08, -5.408482159926778E+08, 2.653722707293731E+07,
2460581.500000000, A.D. 2024-Sep-28 00:00:00.0000, -1.045214458844689E+08, -5.419319514384658E+08, 2.593860104411665E+07,
2460588.500000000, A.D. 2024-Oct-05 00:00:00.0000, -9.529245473336948E+07, -5.428597666696374E+08, 2.533251039241230E+07,
2460595.500000000, A.D. 2024-Oct-12 00:00:00.0000, -8.603594981776251E+07, -5.436307253900895E+08, 2.471909855099511E+07,
2460602.500000000, A.D. 2024-Oct-19 00:00:00.0000, -7.675450102520564E+07, -5.442439283328844E+08, 2.409851221735200E+07,
2460609.500000000, A.D. 2024-Oct-26 00:00:00.0000, -6.745070738107646E+07, -5.446985139362981E+08, 2.347090136971989E+07,
2460616.500000000, A.D. 2024-Nov-02 00:00:00.0000, -5.812719671037596E+07, -5.449936591265239E+08, 2.283641928620237E+07,
2460623.500000000, A.D. 2024-Nov-09 00:00:00.0000, -4.878662531742024E+07, -5.451285801859859E+08, 2.219522255937973E+07,
2460630.500000000, A.D. 2024-Nov-16 00:00:00.0000, -3.943167765662564E+07, -5.451025337064656E+08, 2.154747110405096E+07,
2460637.500000000, A.D. 2024-Nov-23 00:00:00.0000, -3.006506594656460E+07, -5.449148176762865E+08, 2.089332814973497E+07,
2460644.500000000, A.D. 2024-Nov-30 00:00:00.0000, -2.068952951814416E+07, -5.445647727434829E+08, 2.023296019538149E+07,
2460651.500000000, A.D. 2024-Dec-07 00:00:00.0000, -1.130783347667283E+07, -5.440517832335088E+08, 1.956653692224762E+07,
2460658.500000000, A.D. 2024-Dec-14 00:00:00.0000, -1.922767365728693E+06, -5.433752766964440E+08, 1.889423122818026E+07,
2460665.500000000, A.D. 2024-Dec-21 00:00:00.0000, 7.462853849434318E+06, -5.425347232228396E+08, 1.821621949456796E+07,
2460672.500000000, A.D. 2024-Dec-28 00:00:00.0000, 1.684618845273558E+07, -5.415296374938737E+08, 1.753268166251814E+07,
2460679.500000000, A.D. 2025-Jan-04 00:00:00.0000, 2.622436890100113E+07, -5.403595811888843E+08, 1.684380107432213E+07,
2460686.500000000, A.D. 2025-Jan-11 00:00:00.0000, 3.559450318030321E+07, -5.390241640899293E+08, 1.614976438309851E+07,
2460693.500000000, A.D. 2025-Jan-18 00:00:00.0000, 4.495367567879348E+07, -5.375230448012303E+08, 1.545076153982583E+07,
2460700.500000000, A.D. 2025-Jan-25 00:00:00.0000, 5.429894782036588E+07, -5.358559315568302E+08, 1.474698579681855E+07,
2460707.500000000, A.D. 2025-Feb-01 00:00:00.0000, 6.362735864950961E+07, -5.340225831452426E+08, 1.403863370795208E+07,
2460714.500000000, A.D. 2025-Feb-08 00:00:00.0000, 7.293592542667079E+07, -5.320228099299323E+08, 1.332590512199372E+07,
$$EOE